OBJECT_NAME,OBJECT_ID,EPOCH,MEAN_MOTION,ECCENTRICITY,INCLINATION,RA_OF_ASC_NODE,ARG_OF_PERICENTER,MEAN_ANOMALY,EPHEMERIS_TYPE,CLASSIFICATION_TYPE,NORAD_CAT_ID,ELEMENT_SET_NO,REV_AT_EPOCH,BSTAR,MEAN_MOTION_DOT,MEAN_MOTION_DDOT
STARLINK-32231,2024-144Q,2026-07-20T08:13:08.016096,15.34395006,.00012075,53.1595,318.5112,91.7594,268.3547,0,U,60439,999,10875,.55733311E-4,.1507E-4,0
STARLINK-32195,2024-144R,2026-07-21T00:51:33.727392,15.34386612,.00013353,53.1567,315.0191,85.8830,274.2325,0,U,60440,999,10976,-.453902E-6,-.392E-5,0
STARLINK-32177,2024-144S,2026-07-20T13:42:53.006112,15.34376285,.0001541,53.1625,317.0976,83.6489,276.4689,0,U,60441,999,10969,.28499E-4,.586E-5,0
STARLINK-32252,2024-144T,2026-07-20T13:58:01.039008,15.34391277,.0001453,53.1580,317.1632,98.7728,261.3439,0,U,60442,999,10973,.18847E-4,.26E-5,0
STARLINK-32237,2024-144U,2026-07-21T14:04:20.730720,15.34393968,.00012148,53.1600,312.7666,93.5799,266.5342,0,U,60443,999,10984,.2173479E-5,-.303E-5,0
STARLINK-32249,2024-144V,2026-07-20T14:16:11.750016,15.34390900,.0001114,53.1602,317.2391,90.6424,269.4706,0,U,60444,999,10973,.84977E-5,-.89E-6,0
STARLINK-32228,2024-144W,2026-07-19T17:11:24.559008,15.34387517,.00010635,53.1588,321.0017,90.9372,269.1752,0,U,60445,999,10960,.15218778E-4,.138E-5,0
STARLINK-32247,2024-144X,2026-07-19T16:50:33.180288,15.34552300,.00011893,53.1590,312.9565,67.6593,292.4536,0,U,60446,999,10971,.27628455E-3,.9014E-4,0
STARLINK-32101,2024-144Y,2026-07-20T07:21:38.314944,15.34392004,.00012804,53.1596,318.2885,91.6316,268.4833,0,U,60447,999,10965,.35296489E-4,.816E-5,0
STARLINK-31844,2024-150A,2026-07-21T13:13:00.218208,15.31698185,.00014264,53.1603,44.0140,99.2501,260.8662,0,U,60583,999,10855,.25864175E-4,.437E-5,0
STARLINK-32204,2024-150B,2026-07-20T23:44:28.793760,15.34399825,.000131,53.1595,45.4915,85.2430,274.8722,0,U,60584,999,10848,.78540624E-4,.2278E-4,0
STARLINK-32130,2024-150C,2026-07-20T20:06:17.481312,15.30195369,.00014321,53.1609,48.7992,97.0082,263.1082,0,U,60585,999,10834,.38426061E-4,.779E-5,0
STARLINK-32173,2024-150D,2026-07-21T13:00:10.169568,15.34402672,.00013805,53.1610,42.5398,82.7667,277.3492,0,U,60586,999,10857,-.10642188E-4,-.736E-5,0
STARLINK-31911,2024-150E,2026-07-20T20:30:49.859136,15.34389970,.00012574,53.1608,46.0747,99.9179,260.1965,0,U,60587,999,10838,-.424013E-6,-.391E-5,0
STARLINK-31994,2024-150F,2026-07-21T12:51:04.855104,15.34392328,.00012814,53.1604,42.5004,91.4537,268.6612,0,U,60588,999,10849,.32311652E-4,.715E-5,0
STARLINK-32169,2024-150G,2026-07-20T23:31:06.750336,15.30198318,.00012889,53.1605,48.2656,90.7017,269.4132,0,U,60589,999,10844,.30451755E-4,.543E-5,0
STARLINK-32209,2024-150H,2026-07-21T13:09:15.520320,15.34391994,.0001483,53.1603,42.5779,88.5932,271.5240,0,U,60590,999,10857,.27693296E-4,.559E-5,0
STARLINK-32170,2024-150J,2026-07-21T13:29:59.928288,15.30185047,.00012055,53.1611,45.5060,79.3423,280.7713,0,U,60591,999,10845,-.7545163E-5,-.582E-5,0
STARLINK-31497,2024-150K,2026-07-20T23:26:18.119904,15.34393770,.00012413,53.1609,45.4086,77.6164,282.4977,0,U,60592,999,10848,.16445696E-4,.179E-5,0
STARLINK-32161,2024-150L,2026-07-21T13:27:25.645536,15.34397393,.0001202,53.1604,42.6534,90.7308,269.3833,0,U,60593,999,10849,.23958191E-4,.433E-5,0
STARLINK-32210,2024-150M,2026-07-21T14:03:47.748384,15.34394498,.0001162,53.1613,42.8088,99.5354,260.5780,0,U,60594,999,10857,.14963778E-4,.129E-5,0
STARLINK-32202,2024-150N,2026-07-20T23:35:20.158944,15.31713825,.00012706,53.1607,47.5771,79.0272,281.0872,0,U,60595,999,10845,.5946551E-4,.1481E-4,0
STARLINK-31930,2024-150P,2026-07-21T13:54:42.093504,15.34398534,.00010782,53.1607,42.7727,91.2861,268.8266,0,U,60596,999,10849,.20721408E-4,.324E-5,0
STARLINK-32162,2024-150Q,2026-07-21T13:34:34.303584,15.30186540,.00014265,53.1617,45.5222,103.0203,257.0957,0,U,60597,999,10853,-.64181E-6,-.378E-5,0
STARLINK-32208,2024-150R,2026-07-20T23:32:38.157216,15.30188710,.00013125,53.1601,48.2714,84.5397,275.5754,0,U,60598,999,10844,-.22877148E-4,-.1036E-4,0
STARLINK-32165,2024-150S,2026-07-21T13:25:26.671008,15.30129963,.00019394,53.1618,45.4825,101.7279,258.3940,0,U,60599,999,10853,.53531074E-3,.15494E-3,0
STARLINK-31923,2024-150T,2026-07-20T23:03:45.237600,15.30199869,.00013175,53.1605,48.1447,97.1958,262.9193,0,U,60600,999,10844,.27107841E-4,.444E-5,0
STARLINK-31988,2024-150U,2026-07-20T23:47:30.255360,15.34403394,.00011116,53.1597,45.5006,88.3237,271.7893,0,U,60601,999,10840,.43752105E-4,.1102E-4,0
STARLINK-31983,2024-150V,2026-07-20T23:14:11.061312,15.34389791,.00013965,53.1611,45.3536,98.9647,261.1514,0,U,60602,999,10840,-.3757979E-5,-.503E-5,0
STARLINK-31874,2024-150W,2026-07-20T23:35:23.379936,15.34405070,.0001175,53.1593,45.4476,81.0938,279.0198,0,U,60603,999,10848,.21372446E-3,.6853E-4,0
