{"epoch":1784710044,"count":18256,"objects":[{"id":"60439","name":"STARLINK-32231","type":"PAYLOAD","l1":"1 60439U 24144Q   26201.34245389  .00001507  00000-0  55733-4 0  9996","l2":"2 60439  53.1595 318.5112 0001208  91.7594 268.3547 15.34395006108751"},{"id":"60440","name":"STARLINK-32195","type":"PAYLOAD","l1":"1 60440U 24144R   26202.03580703 -.00000392  00000-0 -45390-6 0  9990","l2":"2 60440  53.1567 315.0191 0001335  85.8830 274.2325 15.34386612109764"},{"id":"60441","name":"STARLINK-32177","type":"PAYLOAD","l1":"1 60441U 24144S   26201.57144683  .00000586  00000-0  28499-4 0  9994","l2":"2 60441  53.1625 317.0976 0001541  83.6489 276.4689 15.34376285109692"},{"id":"60442","name":"STARLINK-32252","type":"PAYLOAD","l1":"1 60442U 24144T   26201.58195647  .00000260  00000-0  18847-4 0  9997","l2":"2 60442  53.1580 317.1632 0001453  98.7728 261.3439 15.34391277109737"},{"id":"60443","name":"STARLINK-32237","type":"PAYLOAD","l1":"1 60443U 24144U   26202.58635105 -.00000303  00000-0  21735-5 0  9997","l2":"2 60443  53.1600 312.7666 0001215  93.5799 266.5342 15.34393968109847"},{"id":"60444","name":"STARLINK-32249","type":"PAYLOAD","l1":"1 60444U 24144V   26201.59458044 -.00000089  00000-0  84977-5 0  9991","l2":"2 60444  53.1602 317.2391 0001114  90.6424 269.4706 15.34390900109733"},{"id":"60445","name":"STARLINK-32228","type":"PAYLOAD","l1":"1 60445U 24144W   26200.71625647  .00000138  00000-0  15219-4 0  9996","l2":"2 60445  53.1588 321.0017 0001064  90.9372 269.1752 15.34387517109608"},{"id":"60446","name":"STARLINK-32247","type":"PAYLOAD","l1":"1 60446U 24144X   26200.70177292  .00009014  00000-0  27628-3 0  9992","l2":"2 60446  53.1590 312.9565 0001189  67.6593 292.4536 15.34552300109718"},{"id":"60447","name":"STARLINK-32101","type":"PAYLOAD","l1":"1 60447U 24144Y   26201.30669346  .00000816  00000-0  35296-4 0  9998","l2":"2 60447  53.1596 318.2885 0001280  91.6316 268.4833 15.34392004109650"},{"id":"60583","name":"STARLINK-31844","type":"PAYLOAD","l1":"1 60583U 24150A   26202.55069697  .00000437  00000-0  25864-4 0  9996","l2":"2 60583  53.1603  44.0140 0001426  99.2501 260.8662 15.31698185108550"},{"id":"60584","name":"STARLINK-32204","type":"PAYLOAD","l1":"1 60584U 24150B   26201.98922215  .00002278  00000-0  78541-4 0  9992","l2":"2 60584  53.1595  45.4915 0001310  85.2430 274.8722 15.34399825108480"},{"id":"60585","name":"STARLINK-32130","type":"PAYLOAD","l1":"1 60585U 24150C   26201.83770233  .00000779  00000-0  38426-4 0  9990","l2":"2 60585  53.1609  48.7992 0001432  97.0082 263.1082 15.30195369108345"},{"id":"60586","name":"STARLINK-32173","type":"PAYLOAD","l1":"1 60586U 24150D   26202.54178437 -.00000736  00000-0 -10642-4 0  9993","l2":"2 60586  53.1610  42.5398 0001380  82.7667 277.3492 15.34402672108571"},{"id":"60587","name":"STARLINK-31911","type":"PAYLOAD","l1":"1 60587U 24150E   26201.85474374 -.00000391  00000-0 -42401-6 0  9993","l2":"2 60587  53.1608  46.0747 0001257  99.9179 260.1965 15.34389970108386"},{"id":"60588","name":"STARLINK-31994","type":"PAYLOAD","l1":"1 60588U 24150F   26202.53547286  .00000715  00000-0  32312-4 0  9999","l2":"2 60588  53.1604  42.5004 0001281  91.4537 268.6612 15.34392328108497"},{"id":"60589","name":"STARLINK-32169","type":"PAYLOAD","l1":"1 60589U 24150G   26201.97993924  .00000543  00000-0  30452-4 0  9993","l2":"2 60589  53.1605  48.2656 0001289  90.7017 269.4132 15.30198318108448"},{"id":"60590","name":"STARLINK-32209","type":"PAYLOAD","l1":"1 60590U 24150H   26202.54809630  .00000559  00000-0  27693-4 0  9999","l2":"2 60590  53.1603  42.5779 0001483  88.5932 271.5240 15.34391994108575"},{"id":"60591","name":"STARLINK-32170","type":"PAYLOAD","l1":"1 60591U 24150J   26202.56249917 -.00000582  00000-0 -75452-5 0  9993","l2":"2 60591  53.1611  45.5060 0001205  79.3423 280.7713 15.30185047108456"},{"id":"60592","name":"STARLINK-31497","type":"PAYLOAD","l1":"1 60592U 24150K   26201.97659861  .00000179  00000-0  16446-4 0  9998","l2":"2 60592  53.1609  45.4086 0001241  77.6164 282.4977 15.34393770108486"},{"id":"60593","name":"STARLINK-32161","type":"PAYLOAD","l1":"1 60593U 24150L   26202.56071349  .00000433  00000-0  23958-4 0  9993","l2":"2 60593  53.1604  42.6534 0001202  90.7308 269.3833 15.34397393108493"},{"id":"60594","name":"STARLINK-32210","type":"PAYLOAD","l1":"1 60594U 24150M   26202.58596931  .00000129  00000-0  14964-4 0  9994","l2":"2 60594  53.1613  42.8088 0001162  99.5354 260.5780 15.34394498108579"},{"id":"60595","name":"STARLINK-32202","type":"PAYLOAD","l1":"1 60595U 24150N   26201.98287221  .00001481  00000-0  59466-4 0  9995","l2":"2 60595  53.1607  47.5771 0001271  79.0272 281.0872 15.31713825108450"},{"id":"60596","name":"STARLINK-31930","type":"PAYLOAD","l1":"1 60596U 24150P   26202.57965386  .00000324  00000-0  20721-4 0  9994","l2":"2 60596  53.1607  42.7727 0001078  91.2861 268.8266 15.34398534108497"},{"id":"60597","name":"STARLINK-32162","type":"PAYLOAD","l1":"1 60597U 24150Q   26202.56567481 -.00000378  00000-0 -64181-6 0  9999","l2":"2 60597  53.1617  45.5222 0001427 103.0203 257.0957 15.30186540108530"},{"id":"60598","name":"STARLINK-32208","type":"PAYLOAD","l1":"1 60598U 24150R   26201.98099719 -.00001036  00000-0 -22877-4 0  9995","l2":"2 60598  53.1601  48.2714 0001313  84.5397 275.5754 15.30188710108442"},{"id":"60599","name":"STARLINK-32165","type":"PAYLOAD","l1":"1 60599U 24150S   26202.55933647  .00015494  00000-0  53531-3 0  9998","l2":"2 60599  53.1618  45.4825 0001939 101.7279 258.3940 15.30129963108539"},{"id":"60600","name":"STARLINK-31923","type":"PAYLOAD","l1":"1 60600U 24150T   26201.96094025  .00000444  00000-0  27108-4 0  9994","l2":"2 60600  53.1605  48.1447 0001318  97.1958 262.9193 15.30199869108444"},{"id":"60601","name":"STARLINK-31988","type":"PAYLOAD","l1":"1 60601U 24150U   26201.99132240  .00001102  00000-0  43752-4 0  9995","l2":"2 60601  53.1597  45.5006 0001112  88.3237 271.7893 15.34403394108407"},{"id":"60602","name":"STARLINK-31983","type":"PAYLOAD","l1":"1 60602U 24150V   26201.96818358 -.00000503  00000-0 -37580-5 0  9993","l2":"2 60602  53.1611  45.3536 0001397  98.9647 261.1514 15.34389791108405"},{"id":"60603","name":"STARLINK-31874","type":"PAYLOAD","l1":"1 60603U 24150W   26201.98290949  .00006853  00000-0  21372-3 0  9998","l2":"2 60603  53.1593  45.4476 0001175  81.0938 279.0198 15.34405070108482"}]}